{
  "name": "SATGUS",
  "line1": "1 62713U 25009DJ  26200.78723775  .00003895  00000+0  30528-3 0  9996",
  "line2": "2 62713  97.6854 281.8405 0004987  26.5820 333.5659 15.01556492 82450",
  "fetched_at": "2026-07-20T02:41:33.960331+00:00"
}